CCSDS_OMM_VERS = 2.0
CREATION_DATE  = 
ORIGINATOR     = 

OBJECT_NAME    = STARLINK-36810
OBJECT_ID      = 2026-035V
CENTER_NAME    = EARTH
REF_FRAME      = TEME
TIME_SYSTEM    = UTC
MEAN_ELEMENT_THEORY = SGP/SGP4

EPOCH          = 2026-03-18T20:00:01.999872
MEAN_MOTION    = 15.75158930
ECCENTRICITY   = .00015977
INCLINATION    = 97.2862
RA_OF_ASC_NODE = 10.7204
ARG_OF_PERICENTER = 80.1020
MEAN_ANOMALY   = 357.7258

EPHEMERIS_TYPE = 0
CLASSIFICATION_TYPE = U
NORAD_CAT_ID   = 67898
ELEMENT_SET_NO = 999
REV_AT_EPOCH   = 522
BSTAR          = .28330762E-3
MEAN_MOTION_DOT = .42281E-3
MEAN_MOTION_DDOT = 0

CCSDS_OMM_VERS = 2.0
CREATION_DATE  = 
ORIGINATOR     = 

OBJECT_NAME    = STARLINK-36878
OBJECT_ID      = 2026-035W
CENTER_NAME    = EARTH
REF_FRAME      = TEME
TIME_SYSTEM    = UTC
MEAN_ELEMENT_THEORY = SGP/SGP4

EPOCH          = 2026-03-18T18:03:42.595776
MEAN_MOTION    = 15.80966985
ECCENTRICITY   = .00021032
INCLINATION    = 97.2900
RA_OF_ASC_NODE = 10.6411
ARG_OF_PERICENTER = 121.8822
MEAN_ANOMALY   = 238.2652

EPHEMERIS_TYPE = 0
CLASSIFICATION_TYPE = U
NORAD_CAT_ID   = 67899
ELEMENT_SET_NO = 999
REV_AT_EPOCH   = 527
BSTAR          = .17711046E-2
MEAN_MOTION_DOT = .355759E-2
MEAN_MOTION_DDOT = 0

CCSDS_OMM_VERS = 2.0
CREATION_DATE  = 
ORIGINATOR     = 

OBJECT_NAME    = STARLINK-36361
OBJECT_ID      = 2026-035X
CENTER_NAME    = EARTH
REF_FRAME      = TEME
TIME_SYSTEM    = UTC
MEAN_ELEMENT_THEORY = SGP/SGP4

EPOCH          = 2026-03-18T18:02:37.863168
MEAN_MOTION    = 15.80951577
ECCENTRICITY   = .00021598
INCLINATION    = 97.2897
RA_OF_ASC_NODE = 10.6424
ARG_OF_PERICENTER = 117.9625
MEAN_ANOMALY   = 242.1862

EPHEMERIS_TYPE = 0
CLASSIFICATION_TYPE = U
NORAD_CAT_ID   = 67900
ELEMENT_SET_NO = 999
REV_AT_EPOCH   = 527
BSTAR          = .16887633E-2
MEAN_MOTION_DOT = .338289E-2
MEAN_MOTION_DDOT = 0

CCSDS_OMM_VERS = 2.0
CREATION_DATE  = 
ORIGINATOR     = 

OBJECT_NAME    = STARLINK-36336
OBJECT_ID      = 2026-035Y
CENTER_NAME    = EARTH
REF_FRAME      = TEME
TIME_SYSTEM    = UTC
MEAN_ELEMENT_THEORY = SGP/SGP4

EPOCH          = 2026-03-18T20:00:01.999872
MEAN_MOTION    = 15.76987045
ECCENTRICITY   = .00017154
INCLINATION    = 97.2868
RA_OF_ASC_NODE = 10.7363
ARG_OF_PERICENTER = 69.5095
MEAN_ANOMALY   = 40.8948

EPHEMERIS_TYPE = 0
CLASSIFICATION_TYPE = U
NORAD_CAT_ID   = 67901
ELEMENT_SET_NO = 999
REV_AT_EPOCH   = 527
BSTAR          = -.13023786E-1
MEAN_MOTION_DOT = -.1841188E-1
MEAN_MOTION_DDOT = 0

CCSDS_OMM_VERS = 2.0
CREATION_DATE  = 
ORIGINATOR     = 

OBJECT_NAME    = STARLINK-36876
OBJECT_ID      = 2026-035Z
CENTER_NAME    = EARTH
REF_FRAME      = TEME
TIME_SYSTEM    = UTC
MEAN_ELEMENT_THEORY = SGP/SGP4

EPOCH          = 2026-03-18T18:01:32.838528
MEAN_MOTION    = 15.80916699
ECCENTRICITY   = .00020233
INCLINATION    = 97.2891
RA_OF_ASC_NODE = 10.6449
ARG_OF_PERICENTER = 116.8725
MEAN_ANOMALY   = 243.2750

EPHEMERIS_TYPE = 0
CLASSIFICATION_TYPE = U
NORAD_CAT_ID   = 67902
ELEMENT_SET_NO = 999
REV_AT_EPOCH   = 527
BSTAR          = .10942764E-2
MEAN_MOTION_DOT = .215724E-2
MEAN_MOTION_DDOT = 0

CCSDS_OMM_VERS = 2.0
CREATION_DATE  = 
ORIGINATOR     = 

OBJECT_NAME    = STARLINK-36257
OBJECT_ID      = 2026-035AA
CENTER_NAME    = EARTH
REF_FRAME      = TEME
TIME_SYSTEM    = UTC
MEAN_ELEMENT_THEORY = SGP/SGP4

EPOCH          = 2026-03-18T21:27:31.602528
MEAN_MOTION    = 15.75227682
ECCENTRICITY   = .00017085
INCLINATION    = 97.2884
RA_OF_ASC_NODE = 10.7591
ARG_OF_PERICENTER = 100.8636
MEAN_ANOMALY   = 259.2822

EPHEMERIS_TYPE = 0
CLASSIFICATION_TYPE = U
NORAD_CAT_ID   = 67903
ELEMENT_SET_NO = 999
REV_AT_EPOCH   = 529
BSTAR          = .17218861E-2
MEAN_MOTION_DOT = .265274E-2
MEAN_MOTION_DDOT = 0

CCSDS_OMM_VERS = 2.0
CREATION_DATE  = 
ORIGINATOR     = 

OBJECT_NAME    = STARLINK-36814
OBJECT_ID      = 2026-036A
CENTER_NAME    = EARTH
REF_FRAME      = TEME
TIME_SYSTEM    = UTC
MEAN_ELEMENT_THEORY = SGP/SGP4

EPOCH          = 2026-03-18T20:00:01.999872
MEAN_MOTION    = 15.50521919
ECCENTRICITY   = .00016308
INCLINATION    = 43.0006
RA_OF_ASC_NODE = 195.7189
ARG_OF_PERICENTER = 274.1405
MEAN_ANOMALY   = 193.9245

EPHEMERIS_TYPE = 0
CLASSIFICATION_TYPE = U
NORAD_CAT_ID   = 67904
ELEMENT_SET_NO = 999
REV_AT_EPOCH   = 511
BSTAR          = .14976332E-2
MEAN_MOTION_DOT = .88335E-3
MEAN_MOTION_DDOT = 0

CCSDS_OMM_VERS = 2.0
CREATION_DATE  = 
ORIGINATOR     = 

OBJECT_NAME    = STARLINK-36729
OBJECT_ID      = 2026-036B
CENTER_NAME    = EARTH
REF_FRAME      = TEME
TIME_SYSTEM    = UTC
MEAN_ELEMENT_THEORY = SGP/SGP4

EPOCH          = 2026-03-18T20:00:01.999872
MEAN_MOTION    = 15.50529158
ECCENTRICITY   = .00014534
INCLINATION    = 43.0005
RA_OF_ASC_NODE = 195.0712
ARG_OF_PERICENTER = 286.2461
MEAN_ANOMALY   = 83.9312

EPHEMERIS_TYPE = 0
CLASSIFICATION_TYPE = U
NORAD_CAT_ID   = 67905
ELEMENT_SET_NO = 999
REV_AT_EPOCH   = 511
BSTAR          = .13594376E-2
MEAN_MOTION_DOT = .80087E-3
MEAN_MOTION_DDOT = 0

CCSDS_OMM_VERS = 2.0
CREATION_DATE  = 
ORIGINATOR     = 

OBJECT_NAME    = STARLINK-36763
OBJECT_ID      = 2026-036C
CENTER_NAME    = EARTH
REF_FRAME      = TEME
TIME_SYSTEM    = UTC
MEAN_ELEMENT_THEORY = SGP/SGP4

EPOCH          = 2026-03-18T20:00:01.999872
MEAN_MOTION    = 15.50532808
ECCENTRICITY   = .00021136
INCLINATION    = 43.0003
RA_OF_ASC_NODE = 194.9972
ARG_OF_PERICENTER = 290.2061
MEAN_ANOMALY   = 109.7445

EPHEMERIS_TYPE = 0
CLASSIFICATION_TYPE = U
NORAD_CAT_ID   = 67906
ELEMENT_SET_NO = 999
REV_AT_EPOCH   = 511
BSTAR          = .16072853E-2
MEAN_MOTION_DOT = .94947E-3
MEAN_MOTION_DDOT = 0

CCSDS_OMM_VERS = 2.0
CREATION_DATE  = 
ORIGINATOR     = 

OBJECT_NAME    = STARLINK-36742
OBJECT_ID      = 2026-036D
CENTER_NAME    = EARTH
REF_FRAME      = TEME
TIME_SYSTEM    = UTC
MEAN_ELEMENT_THEORY = SGP/SGP4

EPOCH          = 2026-03-18T20:00:01.999872
MEAN_MOTION    = 15.50529867
ECCENTRICITY   = .00012933
INCLINATION    = 43.0006
RA_OF_ASC_NODE = 195.0482
ARG_OF_PERICENTER = 293.8288
MEAN_ANOMALY   = 85.5595

EPHEMERIS_TYPE = 0
CLASSIFICATION_TYPE = U
NORAD_CAT_ID   = 67907
ELEMENT_SET_NO = 999
REV_AT_EPOCH   = 511
BSTAR          = .13837612E-2
MEAN_MOTION_DOT = .81544E-3
MEAN_MOTION_DDOT = 0

CCSDS_OMM_VERS = 2.0
CREATION_DATE  = 
ORIGINATOR     = 

OBJECT_NAME    = STARLINK-36827
OBJECT_ID      = 2026-036E
CENTER_NAME    = EARTH
REF_FRAME      = TEME
TIME_SYSTEM    = UTC
MEAN_ELEMENT_THEORY = SGP/SGP4

EPOCH          = 2026-03-18T20:00:01.999872
MEAN_MOTION    = 15.50955124
ECCENTRICITY   = .0002131
INCLINATION    = 43.0005
RA_OF_ASC_NODE = 194.7362
ARG_OF_PERICENTER = 277.9167
MEAN_ANOMALY   = 228.0394

EPHEMERIS_TYPE = 0
CLASSIFICATION_TYPE = U
NORAD_CAT_ID   = 67908
ELEMENT_SET_NO = 999
REV_AT_EPOCH   = 511
BSTAR          = -.10688612E-1
MEAN_MOTION_DOT = -.590255E-2
MEAN_MOTION_DDOT = 0

CCSDS_OMM_VERS = 2.0
CREATION_DATE  = 
ORIGINATOR     = 

OBJECT_NAME    = STARLINK-36822
OBJECT_ID      = 2026-036F
CENTER_NAME    = EARTH
REF_FRAME      = TEME
TIME_SYSTEM    = UTC
MEAN_ELEMENT_THEORY = SGP/SGP4

EPOCH          = 2026-03-18T20:00:01.999872
MEAN_MOTION    = 15.50522418
ECCENTRICITY   = .00018844
INCLINATION    = 43.0004
RA_OF_ASC_NODE = 194.9903
ARG_OF_PERICENTER = 276.1423
MEAN_ANOMALY   = 126.6499

EPHEMERIS_TYPE = 0
CLASSIFICATION_TYPE = U
NORAD_CAT_ID   = 67909
ELEMENT_SET_NO = 999
REV_AT_EPOCH   = 511
BSTAR          = .15099856E-2
MEAN_MOTION_DOT = .89077E-3
MEAN_MOTION_DDOT = 0

