STARLINK-36810          
1 67898U 26035V   26077.83335648  .00042281  00000+0  28331-3 0  9992
2 67898  97.2862  10.7204 0001597  80.1020 357.7258 15.75158930  5221
STARLINK-36878          
1 67899U 26035W   26077.75257634  .00355759  00000+0  17711-2 0  9998
2 67899  97.2900  10.6411 0002103 121.8822 238.2652 15.80966985  5270
STARLINK-36361          
1 67900U 26035X   26077.75182712  .00338289  00000+0  16888-2 0  9998
2 67900  97.2897  10.6424 0002159 117.9625 242.1862 15.80951577  5278
STARLINK-36336          
1 67901U 26035Y   26077.83335648 -.01841188  00000+0 -13024-1 0  9994
2 67901  97.2868  10.7363 0001715  69.5095  40.8948 15.76987045  5272
STARLINK-36876          
1 67902U 26035Z   26077.75107452  .00215724  00000+0  10943-2 0  9992
2 67902  97.2891  10.6449 0002023 116.8725 243.2750 15.80916699  5274
STARLINK-36257          
1 67903U 26035AA  26077.89411577  .00265274  00000+0  17219-2 0  9992
2 67903  97.2884  10.7591 0001708 100.8636 259.2822 15.75227682  5299
STARLINK-36814          
1 67904U 26036A   26077.83335648  .00088335  00000+0  14976-2 0  9990
2 67904  43.0006 195.7189 0001630 274.1405 193.9245 15.50521919  5112
STARLINK-36729          
1 67905U 26036B   26077.83335648  .00080087  00000+0  13594-2 0  9992
2 67905  43.0005 195.0712 0001453 286.2461  83.9312 15.50529158  5112
STARLINK-36763          
1 67906U 26036C   26077.83335648  .00094947  00000+0  16073-2 0  9998
2 67906  43.0003 194.9972 0002113 290.2061 109.7445 15.50532808  5112
STARLINK-36742          
1 67907U 26036D   26077.83335648  .00081544  00000+0  13838-2 0  9994
2 67907  43.0006 195.0482 0001293 293.8288  85.5595 15.50529867  5110
STARLINK-36827          
1 67908U 26036E   26077.83335648 -.00590255  00000+0 -10689-1 0  9991
2 67908  43.0005 194.7362 0002131 277.9167 228.0394 15.50955124  5114
STARLINK-36822          
1 67909U 26036F   26077.83335648  .00089077  00000+0  15100-2 0  9999
2 67909  43.0004 194.9903 0001884 276.1423 126.6499 15.50522418  5112
